MALLIGYONG-1            
1 58400U 23179A   24132.56541350  .00025299  00000+0  10932-2 0  9993
2 58400  97.4077  19.9721 0010282  41.3883 318.8130 15.22418398 26153
